X,Y,fid,Name,X_ADDR,ADDRESSFLOORNUMBER,Address_Type,PHOTOURL,Y_ADDR,ADDRESSBUILDINGNAME,HYPERLINK,LANDYADDRESSPOINT,INC_CRC,SHAPE,ADDRESSPOSTALCODE,FMEL_UPD_D,ADDRESSSTREETNAME,ADDRESSUNITNUMBER,LANDXADDRESSPOINT,ADDRESSBLOCKHOUSENUMBER,DESCRIPTION
103.842578750107,1.28499102169626,HAWKERCENTRE.0,People's Park Food Centre,29030.58,,,,29713.3,,,29713.3,431889D3D141A869,Point,50032,4/10/2017 6:09:18 PM,New Market Road,,29030.58,32,HUP Standard Upgrading
103.832348785334,1.28508825756946,HAWKERCENTRE.1,Tiong Bahru Market,27892.07,,,,29724.05,,,29724.05,0FAB58D0EC9C4FA0,Point,168898,4/10/2017 6:09:18 PM,Seng Poh Road,,27892.07,30,HUP Rebuilding
103.906338526157,1.30228513841925,HAWKERCENTRE.2,Blk 84 Marine Parade Central,36126.46,,,,31625.71,,,31625.71,069C7A0A93C6789E,Point,440084,4/10/2017 6:09:18 PM,Marine Parade Central,,36126.46,84,Opted out of HUP
103.843177616296,1.28223514826513,HAWKERCENTRE.3,Chinatown Market,29097.23,,,,29408.57,,,29408.57,B4A7F7D040ED3020,Point,50335,4/10/2017 6:09:18 PM,Smith Street,,29097.23,335,HUP Reconfiguration
103.866536130299,1.36422852315885,HAWKERCENTRE.4,Chomp Chomp Food Centre,31696.7199,,,,38475,,,38475,FD83AAB0DAB95E52,Point,557269,4/10/2017 6:09:18 PM,Kensington Park Road,,31696.72,20,HUP Standard Upgrading
103.90182514721,1.30941418731278,HAWKERCENTRE.5,Dunman Food Centre,35624.1399,,,,32413.99,,,32413.99,5924E4894BFFB07F,Point,424768,4/10/2017 6:09:18 PM,Onan Road,,35624.14,271,HUP Standard Upgrading
103.93501674725,1.3066843182093,HAWKERCENTRE.6,East Coast Lagoon Food Village,39318.07,,,,32112.2599,,,32112.26,1D6E51B47DFE6205,Point,468960,4/10/2017 6:09:18 PM,East Coast Parkway,,39318.07,1220,HUP Rebuilding
103.93056047823,1.32473884451107,HAWKERCENTRE.7,Blk 208B New Upper Changi Road,38822.0499,,,,34108.6199,,,34108.62,03BAD6655A3DB378,Point,462208,4/11/2017 10:49:15 AM,New Upper Changi Road,,38822.05,208B,New Replacement Centre
103.854395279214,1.3402608349591,HAWKERCENTRE.8,Blk 210 Toa Payoh Lorong 8,30345.61,,,,35824.7599,,,35824.76,AD6CE8502D6F0511,Point,310210,4/11/2017 10:49:15 AM,Lorong 8 Toa Payoh,,30345.61,210,HUP Standard Upgrading
103.857036007166,1.33523145909735,HAWKERCENTRE.9,Blk 22 Toa Payoh Lorong 7,30639.5,,,,35268.64,,,35268.64,E43A2111EC5281C8,Point,310022,4/11/2017 10:49:15 AM,Lorong 7 Toa Payoh,,30639.5,22,HUP Reconfiguration
103.839231344066,1.3667876452365,HAWKERCENTRE.10,Blk 226D Ang Mo Kio Ave 1,28658.0199,,,,38757.9499,,,38757.95,0177924BD592B200,Point,564226,4/11/2017 10:49:15 AM,Ang Mo Kio Ave 1,,28658.02,226D,HUP Standard Upgrading
103.839953165937,1.36723014879679,HAWKERCENTRE.11,Blk 226H Ang Mo Kio Street 22,28738.3499,,,,38806.88,,,38806.88,69908CB7DC6D3A9D,Point,568226,4/11/2017 10:49:15 AM,Ang Mo Kio Street 22,,28738.35,226H,HUP Reconfiguration
103.737781231485,1.34344213771036,HAWKERCENTRE.12,Blk 254 Jurong East Street 24,17367.73,,,,36176.73,,,36176.73,037A6F1E5C7496F1,Point,600254,4/11/2017 10:49:15 AM,Jurong East Street 24,,17367.73,254,HUP Reconfiguration
103.837031803823,1.35200744198451,HAWKERCENTRE.13,Blk 320 Shunfu Road,28413.24,,,,37123.63,,,37123.63,93EF4005E28718AC,Point,570320,4/11/2017 10:49:15 AM,Shunfu Road,,28413.24,320,Not eligible for HUP
103.848254220438,1.36410517096415,HAWKERCENTRE.14,Blk 341 Ang Mo Kio Ave 1,29662.16,,,,38461.3399,,,38461.34,07D7927BDE6DBC27,Point,560341,4/11/2017 10:49:15 AM,Ang Mo Kio Ave 1,,29662.16,341,HUP Rebuilding
103.792773765463,1.30811775909918,HAWKERCENTRE.15,Blk 44 Holland Drive,23487.74,,,,32270.57,,,32270.57,A15ED2B9B46BDAD8,Point,270044,4/11/2017 10:49:15 AM,Holland Drive,,23487.74,44,HUP Standard Upgrading
103.764510533078,1.31326486994201,HAWKERCENTRE.16,Blk 448 Clementi Ave 3,20342.32,,,,32839.7799,,,32839.78,FDAC6B279CEC9611,Point,120448,4/11/2017 10:49:15 AM,Clementi Ave 3,,20342.32,448,HUP Standard Upgrading
103.879417030673,1.31708335109185,HAWKERCENTRE.17,Blk 49 Sims Place,33130.3099,,,,33261.9499,,,33261.95,87604B5A615D4FF2,Point,380049,4/11/2017 10:49:15 AM,Sims Place,,33130.31,49,HUP Reconfiguration
103.904260878989,1.32033178221502,HAWKERCENTRE.18,Blk 4A Eunos Crescent,35895.1799,,,,33621.21,,,33621.21,E0DC5CBB94834660,Point,402004,4/11/2017 10:49:15 AM,Eunos Crescent,,35895.18,4A,HUP Standard Upgrading
103.88394058022,1.30241881353552,HAWKERCENTRE.19,Blk 4A Jalan Batu,33633.7699,,,,31640.4299,,,31640.43,551478E05D387B4B,Point,432004,4/11/2017 10:49:15 AM,Jalan Batu,,33633.77,4A,HUP Standard Upgrading
103.770087430227,1.44084007475866,HAWKERCENTRE.20,Blk 4A Woodlands Centre Road,20963.3499,,,,46946.39,,,46946.39,3F22C43A92E0114A,Point,731004,4/11/2017 10:49:15 AM,Woodlands Centre Road,,20963.35,4A,Not eligible for HUP
103.759166093858,1.31188972115987,HAWKERCENTRE.21,Blk 502 West Coast Drive,19747.53,,,,32687.74,,,32687.74,2DBB0A9F815C41FA,Point,120502,4/11/2017 10:49:15 AM,West Coast Drive,,19747.53,502,Not eligible for HUP
103.844747581861,1.42501763803197,HAWKERCENTRE.22,Yishun Hawker Centre,29271.8799,,,,45196.73,,,45196.73,2676B659E2408E4A,Point,,4/10/2017 6:09:18 PM,Yishun Avenue 11 / Yishun Ring Road,,29271.88,,
103.697404254468,1.34125970600999,HAWKERCENTRE.23,Jurong West Hawker Centre and Market,12874.19,,,,35935.6199,,,35935.62,A85BCE9D4591A35E,Point,,4/10/2017 6:09:18 PM,Jurong West Street 61,,12874.19,,
103.951543034782,1.3734341397325,HAWKERCENTRE.24,Pasir Ris Central Hawker Centre,41156.94,,,,39493.21,,,39493.21,0EC198F97AE0CB30,Point,,4/10/2017 6:09:18 PM,Pasir Ris Central,,41156.94,,
103.772489583206,1.37760053528609,HAWKERCENTRE.25,Bukit Panjang Hawker Centre and Market,21230.49,,,,39953.6699,,,39953.67,2FEB0DCCF8A48811,Point,679947,11/4/2016 2:23:25 PM,Bukit Panjang Ring Road,,21230.49,2,
103.895609494855,1.31514205052805,HAWKERCENTRE.26,Blks 13/14 Haig Road,34932.3799,,,,33047.33,,,33047.33,110148A5D7A97F26,Point,430013,11/4/2016 2:23:25 PM,Haig Road,,34932.38,13/14,HUP Reconfiguration
103.839214290038,1.37448912101911,HAWKERCENTRE.27,Blks 160/162 Ang Mo Kio Ave 4,28656.12,,,,39609.5399,,,39609.54,546287EBD5972C88,Point,560160,11/4/2016 2:23:25 PM,Ang Mo Kio Ave 4,,28656.12,160/162,HUP Standard Upgrading
103.800362825517,1.30689227608537,HAWKERCENTRE.28,Commonwealth Crescent Market,24332.33,,,,32135.05,,,32135.05,35C408FD147A8F09,Point,149644,11/16/2016 3:29:26 PM,Commonwealth Crescent,,24332.33,31,HUP Rebuilding
103.82211725658,1.27271579716653,HAWKERCENTRE.29,Blk 36 Telok Blangah Rise,26753.3799,,,,28355.97,,,28355.97,336A650E37E6A31D,Point,90036,11/16/2016 3:29:26 PM,Telok Blangah Rise,,26753.38,36,HUP Standard Upgrading
103.863883249985,1.30287548090884,HAWKERCENTRE.30,Golden Mile Food Centre,31401.57,,,,31690.89,,,31690.89,68D21092955DECEF,Point,199583,11/4/2016 2:23:25 PM,Beach Road,,31401.57,505,HUP Standard Upgrading
103.885977616903,1.35911942212666,HAWKERCENTRE.31,Kovan Market & Food Centre,33860.3399,,,,37910.0999,,,37910.1,5F6AEDB775A16726,Point,530209,11/4/2016 2:23:25 PM,Hougang Street 21,,33860.34,209,HUP Standard Upgrading
103.890081064953,1.353837391012,HAWKERCENTRE.32,Blk 105 Hougang Ave 1,34317.0199,,,,37326.05,,,37326.05,47665F14EEC58AE2,Point,530105,11/4/2016 2:23:25 PM,Hougang Ave 1,,34317.02,105,HUP Rebuilding
103.826013285715,1.28000481199016,HAWKERCENTRE.33,Blk 112 Jalan Bukit Merah,27186.98,,,,29161.9499,,,29161.95,F6CA40B9F24C50D2,Point,160112,11/4/2016 2:23:25 PM,Jalan Bukit Merah,,27186.98,112,HUP Standard Upgrading
103.822049361292,1.28550478314745,HAWKERCENTRE.34,Blk 115 Bukit Merah View,26745.83,,,,29770.1099,,,29770.11,7A2BDBF5C93ED2B6,Point,151115,11/4/2016 2:23:25 PM,Bukit Merah View,,26745.83,115,HUP Standard Upgrading
103.850225081031,1.31615991374673,HAWKERCENTRE.35,Pek Kio Market & Food Centre,29881.53,,,,33159.8,,,33159.8,FBD170F345FFFD0D,Point,211041,11/4/2016 2:23:25 PM,Cambridge Road,,29881.53,41A,HUP Reconfiguration
103.828994204342,1.3723849400215,HAWKERCENTRE.36,Sembawang Hills Food Centre,27518.75,,,,39376.8699,,,39376.87,6CC207916E06EC0B,Point,574419,11/4/2016 2:23:25 PM,Upper Thomson Road,,27518.75,590,HUP Standard Upgrading
103.807626838954,1.27336828250429,HAWKERCENTRE.37,Blk 79 Telok Blangah Drive,25140.71,,,,28428.13,,,28428.13,47E27FD77894457F,Point,100079,11/4/2016 2:23:25 PM,Telok Blangah Drive,,25140.71,79,HUP Standard Upgrading
103.887128535138,1.32784956142615,HAWKERCENTRE.38,Blk 80 Circuit Road,33988.5,,,,34452.4399,,,34452.44,3BE7F742E46135F2,Point,370080,11/4/2016 2:23:25 PM,Circuit Road,,33988.5,80,HUP Reconfiguration
103.807943567416,1.27391379857145,HAWKERCENTRE.39,Blk 82 Telok Blangah Drive,25175.96,,,,28488.4499,,,28488.45,1EB09A2220939DBD,Point,100082,11/4/2016 2:23:25 PM,Telok Blangah Drive,,25175.96,82,HUP Standard Upgrading
103.871620273635,1.31502804429604,HAWKERCENTRE.40,Blk 17 Upper Boon Keng Road,32262.61,,,,33034.6699,,,33034.67,5A26A7AC997077D9,Point,380017,11/4/2016 2:23:25 PM,Upper Boon Keng Road,,32262.61,17,HUP Standard Upgrading
103.863021377531,1.31921699786887,HAWKERCENTRE.41,Blk 29 Bendemeer Road,31305.6299,,,,33497.8499,,,33497.85,A7DB5A3EC43E67EC,Point,330029,11/4/2016 2:23:25 PM,Bendemeer Road,,31305.63,29,HUP Standard Upgrading
103.731579747132,1.34531247026836,HAWKERCENTRE.42,Blk 347 Jurong East Ave 1,16677.58,,,,36383.57,,,36383.57,6C864243950B815E,Point,600347,11/4/2016 2:23:25 PM,Jurong East Ave 1,,16677.58,347,HUP Standard Upgrading
103.770836740843,1.31436772839414,HAWKERCENTRE.43,Blk 353 Clementi Ave 2,21046.37,,,,32961.71,,,32961.71,42176A302AD9A083,Point,120353,11/4/2016 2:23:25 PM,Clementi Ave 2,,21046.37,353,HUP Standard Upgrading
103.742891623681,1.32084835041732,HAWKERCENTRE.44,Blk 37A Teban Gardens Road,17936.37,,,,33678.4,,,33678.4,D50987C7994A4FAE,Point,601037,11/4/2016 2:23:25 PM,Teban Gardens Road,,17936.37,37A,HUP Rebuilding
103.855369790045,1.36276891777401,HAWKERCENTRE.45,Blk 409 Ang Mo Kio Ave 10,30454.04,,,,38313.5899,,,38313.59,6728AD94ED51E8C6,Point,560409,11/4/2016 2:23:25 PM,Ang Mo Kio Ave 10,,30454.04,409,HUP Standard Upgrading
103.856351437414,1.36824049310016,HAWKERCENTRE.46,Blk 453A Ang Mo Kio Ave 10,30563.28,,,,38918.6099,,,38918.61,D0070B678CBAC6F1,Point,561453,11/4/2016 2:23:25 PM,Ang Mo Kio Ave 10,,30563.28,453A,HUP Standard Upgrading
103.870004415152,1.32146226027095,HAWKERCENTRE.47,Blk 69 Geylang Bahru,32082.7699,,,,33746.13,,,33746.13,1CDA7137A5D2B51E,Point,330069,4/10/2017 6:09:18 PM,Geylang Bahru,,32082.77,69,Opted out of HUP
103.854482811591,1.37276992816903,HAWKERCENTRE.48,Blk 527 Ang Mo Kio Ave 10,30355.32,,,,39419.4499,,,39419.45,4658734052B398E9,Point,560527,4/11/2017 10:49:15 AM,Ang Mo Kio Ave 10,,30355.32,527,HUP Reconfiguration
103.924844235398,1.33178125123314,HAWKERCENTRE.49,Blk 538 Bedok North Street 3,38185.86,,,,34887.31,,,34887.31,F1A5DD5A5D633AC2,Point,460538,4/11/2017 10:49:15 AM,Bedok North Street 3,,38185.86,538,HUP Standard Upgrading
103.94113237262,1.32418782817992,HAWKERCENTRE.50,Blk 58 New Upper Changi Road,39998.5999,,,,34047.74,,,34047.74,57B99402BD65D7D4,Point,461058,4/11/2017 10:49:15 AM,New Upper Changi Road,,39998.6,58,HUP Standard Upgrading
103.843166992138,1.27661461066461,HAWKERCENTRE.51,Blk 6 Tanjong Pagar Plaza,29096.0499,,,,28787.08,,,28787.08,90C2DF39B4E4EA89,Point,81006,4/11/2017 10:49:15 AM,Tanjong Pagar Plaza,,29096.05,6,HUP Standard Upgrading
103.840682307297,1.38102486670541,HAWKERCENTRE.52,Blk 628 Ang Mo Kio Ave 4,28819.49,,,,40332.23,,,40332.23,CE6A36B4141480B7,Point,560628,4/11/2017 10:49:15 AM,Ang Mo Kio Ave 4,,28819.49,628,HUP Rebuilding
103.91405388831,1.33315924777403,HAWKERCENTRE.53,Blk 630 Bedok Reservoir Road,36985,,,,35039.64,,,35039.64,BBA7FF2B0FF1EE8F,Point,470630,4/11/2017 10:49:15 AM,Bedok Reservoir Road,,36985,630,HUP Rebuilding
103.805636386821,1.31624573118457,HAWKERCENTRE.54,Blk 7 Empress Road,24919.24,,,,33169.3,,,33169.3,2DAAEFC7B5672C00,Point,260007,4/11/2017 10:49:15 AM,Empress Road,,24919.24,7,HUP Standard Upgrading
103.846519219268,1.3721974327005,HAWKERCENTRE.55,Blk 724 Ang Mo Kio Ave 6,29469.07,,,,39356.14,,,39356.14,8285869D959B4769,Point,560724,4/11/2017 10:49:15 AM,Ang Mo Kio Ave 6,,29469.07,724,HUP Reconfiguration
103.764264410293,1.30378197267211,HAWKERCENTRE.56,Blk 726 Clementi West Street 2,20314.9,,,,31791.21,,,31791.21,3B5F054B509AB58B,Point,120726,4/11/2017 10:49:15 AM,Clementi West Street 2,,20314.9,726,HUP Standard Upgrading
103.851999137527,1.33454816495696,HAWKERCENTRE.57,Blk 74 Toa Payoh Lorong 4,30078.95,,,,35193.08,,,35193.08,0F387A4A3713F7A1,Point,310074,4/11/2017 10:49:15 AM,Lorong 4 Toa Payoh,,30078.95,74,HUP Reconfiguration
103.850028715295,1.28386703896347,HAWKERCENTRE.58,Market Street Food Centre,29859.7,,,,29589.0199,Golden Shoe Multi-Storey Carpark,,29589.02,7392BB697E02EA1D,Point,48940,4/11/2017 10:49:15 AM,Market Street,,29859.7,50,HUP Standard Upgrading
103.844827863123,1.28011223513339,HAWKERCENTRE.59,Maxwell Food Centre,29280.8899,,,,29173.83,,,29173.83,FE75522D97DFBB7F,Point,69184,4/11/2017 10:49:15 AM,Kadayanallur Street,,29280.89,1,Upgraded prior to HUP
103.839562687644,1.31189235691742,HAWKERCENTRE.60,Newton Food Centre,28694.91,,,,32687.91,,,32687.91,A3E97849FF6F3FE8,Point,229495,4/11/2017 10:49:15 AM,Clemenceau Ave North,,28694.91,500,HUP Standard Upgrading
103.863891012338,1.30576537802859,HAWKERCENTRE.61,North Bridge Road Market & Food Centre,31402.4299,,,,32010.4399,,,32010.44,3B33AC4C585FF4FB,Point,198783,4/11/2017 10:49:15 AM,North Bridge Road,,31402.43,861,HUP Reconfiguration
103.791402660553,1.27590752450341,HAWKERCENTRE.62,Pasir Panjang Food Centre,23335.0899,,,,28708.9299,,,28708.93,311FCFFEDE0AD26E,Point,118543,4/11/2017 10:49:15 AM,Pasir Panjang Road,,23335.09,121,HUP Standard Upgrading
103.866737484646,1.36315712011148,HAWKERCENTRE.63,Serangoon Garden Market,31719.1299,,,,38356.5299,,,38356.53,F3EA4B58F14BBECB,Point,555945,4/11/2017 10:49:15 AM,Serangoon Garden Way,,31719.13,49A,HUP Rebuilding
103.721519868629,1.33458935951134,HAWKERCENTRE.64,Taman Jurong Market & Food Centre,15557.9699,,,,35197.91,,,35197.91,45EB3EEB6168C596,Point,618499,4/11/2017 10:49:15 AM,Yung Sheng Road,,15557.97,3,HUP Rebuilding
103.777203165702,1.44388181695515,HAWKERCENTRE.65,Blks 20/21 Marsiling Lane,21755.23,,,,47282.71,,,47282.71,F48BB5AAEC6675E8,Point,730020,4/11/2017 10:49:15 AM,Marsiling Lane,,21755.23,20/21,HUP Standard Upgrading
103.712799765872,1.34522316279713,HAWKERCENTRE.66,Blks 221A/B Boon Lay Place,14587.57,,,,36373.7899,,,36373.79,84F8C2B4A0428989,Point,641221,4/11/2017 10:49:15 AM,Boon Lay Place,,14587.57,221A/B,HUP Reconfiguration
103.829626834637,1.28797543998856,HAWKERCENTRE.67,Blks 22A/B Havelock Road,27589.1399,,,,30043.3,,,30043.3,1CFBA3CBD7BDDC58,Point,161022,4/11/2017 10:49:15 AM,Havelock Road,,27589.14,22A/B,HUP Standard Upgrading
103.885043500019,1.32644992167301,HAWKERCENTRE.68,Blks 79/79A Circuit Road,33756.46,,,,34297.6699,,,34297.67,B1F15E008973392D,Point,370079,4/11/2017 10:49:15 AM,Circuit Road,,33756.46,79/79A,HUP Standard Upgrading
103.85406806286,1.32342175143899,HAWKERCENTRE.69,Blks 91/92 Whampoa Drive,30309.21,,,,33962.7799,,,33962.78,38A4F5315805995D,Point,320091,4/11/2017 10:49:15 AM,Whampoa Drive,,30309.21,91/92,HUP Standard Upgrading
103.775995008012,1.33937596351574,HAWKERCENTRE.70,Bukit Timah Market,21620.5,,,,35726.98,,,35726.98,FD4DDC8CC949BE76,Point,588215,4/11/2017 10:49:15 AM,Upper Bukit Timah Road,,21620.5,51,HUP Standard Upgrading
103.828537609942,1.43144768831144,HAWKERCENTRE.71,Chong Pang Market & Food Centre,27467.95,,,,45907.73,,,45907.73,A75CB1D5AA165DEE,Point,760104,4/11/2017 10:49:15 AM,Yishun Ring Road,,27467.95,104/105,HUP Standard Upgrading
103.898224315881,1.31672814769914,HAWKERCENTRE.72,Geylang Serai Market,35223.3799,,,,33222.72,,,33222.72,A247BF611947BDE1,Point,402001,4/11/2017 10:49:15 AM,Geylang Serai,,35223.38,,HUP Rebuilding
103.794862936127,1.31090802808649,HAWKERCENTRE.73,Holland Village Market & Food Centre,23720.25,,,,32579.0999,,,32579.1,69A5ED122BC1A107,Point,277700,4/11/2017 10:49:15 AM,Lorong Mambong,,23720.25,1,HUP Rebuilding
103.845818885585,1.28524640047175,HAWKERCENTRE.74,Hong Lim Market & Food Centre,29391.1799,,,,29741.5399,,,29741.54,A6069393C1065F03,Point,51531,4/11/2017 10:49:15 AM,Upper Cross Street,,29391.18,531A,HUP Reconfiguration
103.884130183315,1.30739616010038,HAWKERCENTRE.75,Kallang Estate Market,33654.86,,,,32190.8,,,32190.8,2F0C253309120209,Point,397972,4/11/2017 10:49:15 AM,Old Airport Road,,33654.86,17,HUP Standard Upgrading
103.988245749103,1.38915172064988,HAWKERCENTRE.76,Blks 2 & 3 Changi Village Road,45241.4,,,,41231.4199,,,41231.42,DC5973E8EE2939E4,Point,500002,4/11/2017 10:49:15 AM,Changi Village Road,,45241.4,2-Mar,HUP Standard Upgrading
103.808127999318,1.28695275199069,HAWKERCENTRE.77,ABC Brickworks Market & Food Centre,25196.5,,,,29930.23,,,29930.23,D9BD256F9184BE67,Point,150006,4/11/2017 10:49:15 AM,Jalan Bukit Merah,,25196.5,6,HUP Reconfiguration
103.814165010384,1.32413422253391,HAWKERCENTRE.78,Adam Food Centre,25868.4,,,,34041.56,,,34041.56,EC26BEAC5C1A7B3F,Point,289876,4/11/2017 10:49:15 AM,Adam Road,,25868.4,2,HUP Standard Upgrading
103.854211645499,1.30100146521511,HAWKERCENTRE.79,Albert Centre Market & Food Centre,30325.21,,,,31483.66,,,31483.66,0906CEDC62A396EF,Point,180270,4/11/2017 10:49:15 AM,Queen Street,,30325.21,270,HUP Standard Upgrading
103.804489277779,1.28629777221785,HAWKERCENTRE.80,Alexandra Village Food Centre,24791.54,,,,29857.81,,,29857.81,98A3C26D8567F7A0,Point,150120,4/11/2017 10:49:15 AM,Bukit Merah Lane 1,,24791.54,120,HUP Standard Upgrading
103.846606784092,1.27921844263404,HAWKERCENTRE.81,Amoy Street Food Centre,29478.87,,,,29075,National Development Building,,29075,81106E053386E820,Point,69111,4/11/2017 10:49:15 AM,Telok Ayer Street,,29478.87,,HUP Standard Upgrading
103.955474150677,1.32035600765504,HAWKERCENTRE.82,Bedok Food Centre,41594.7199,,,,33624.1099,,,33624.11,5074BAFFB7AA8A1C,Point,469572,4/11/2017 10:49:15 AM,Bedok Road,,41594.72,1,HUP Rebuilding
103.827358017197,1.28882210205334,HAWKERCENTRE.83,Beo Crescent Market,27336.6399,,,,30136.9199,,,30136.92,D232402B91E9333E,Point,169982,4/11/2017 10:49:15 AM,Beo Crescent,,27336.64,38A,HUP Standard Upgrading
103.856853966617,1.30733651651614,HAWKERCENTRE.84,Berseh Food Centre,30619.2699,,,,32184.16,,,32184.16,A7CCEB2CE383282D,Point,208877,4/11/2017 10:49:15 AM,Jalan Besar,,30619.27,166,HUP Standard Upgrading
103.839945947186,1.28823055540125,HAWKERCENTRE.85,Blk 1 Jalan Kukoh,28737.57,,,,30071.5099,,,30071.51,8943084AC79E5165,Point,161001,4/11/2017 10:49:15 AM,Jalan Kukoh,,28737.57,1,HUP Standard Upgrading
103.818641695106,1.27736683810456,HAWKERCENTRE.86,Blk 11 Telok Blangah Crescent,26366.58,,,,28870.2599,,,28870.26,917DDC2AECE36927,Point,90011,4/11/2017 10:49:15 AM,Telok Blangah Crescent,,26366.58,11,HUP Standard Upgrading
103.88701902611,1.32064829235064,HAWKERCENTRE.87,Blk 117 Aljunied Ave 2,33976.33,,,,33656.16,,,33656.16,AA7744C0D466F5BF,Point,380117,4/11/2017 10:49:15 AM,Aljunied Ave 2,,33976.33,117,HUP Standard Upgrading
103.844731621961,1.33809268551439,HAWKERCENTRE.88,Blk 127 Toa Payoh Lorong 1,29270.15,,,,35585.0099,,,35585.01,ED2DB7B701CD3F02,Point,310127,4/11/2017 10:49:15 AM,Lorong 1 Toa Payoh,,29270.15,127,HUP Reconfiguration
103.944624481151,1.34563952102332,HAWKERCENTRE.89,Blk 137 Tampines Street 11,40387.1299,,,,36419.7799,,,36419.78,F6017D5FF0CFCB30,Point,521137,4/11/2017 10:49:15 AM,Tampines Street 11,,40387.13,137,HUP Reconfiguration
103.759751321019,1.31180301004286,HAWKERCENTRE.90,Blk 503 West Coast Drive,19812.66,,,,32678.15,,,32678.15,7A279834ADC45AEF,Point,120503,4/11/2017 10:49:15 AM,West Coast Drive,,19812.66,503,HUP Standard Upgrading
103.915761950557,1.30577514781207,HAWKERCENTRE.91,Blk 50A Marine Terrace,37175.19,,,,32011.65,,,32011.65,6834B490EBE77FE9,Point,441050,4/11/2017 10:49:15 AM,Marine Terrace,,37175.19,50A,HUP Standard Upgrading
103.885833217727,1.30825156309893,HAWKERCENTRE.92,Blk 51 Old Airport Road,33844.3899,,,,32285.39,,,32285.39,49DC3EB458653325,Point,390051,4/11/2017 10:49:15 AM,Old Airport Road,,33844.39,51,HUP Standard Upgrading
103.930602144469,1.33324627868997,HAWKERCENTRE.93,Blk 511 Bedok North Street 3,38826.65,,,,35049.33,,,35049.33,29D02D34FD47BA8F,Point,460511,4/11/2017 10:49:15 AM,Bedok North Street 3,,38826.65,511,HUP Standard Upgrading
103.797625756738,1.30078931480947,HAWKERCENTRE.94,Tanglin Halt Market,24027.71,,,,31460.22,,,31460.22,74052054AC21AE17,Point,148813,4/11/2017 10:49:15 AM,Tanglin Halt Road,,24027.71,48A,HUP Standard Upgrading
103.850530969624,1.30620584090831,HAWKERCENTRE.95,Tekka Market,29915.58,,,,32059.13,,,32059.13,D09ADF34B1DBABDE,Point,210665,4/11/2017 10:49:15 AM,Buffalo Road,,29915.58,665,HUP Standard Upgrading
103.831189303546,1.29234216758075,HAWKERCENTRE.96,Zion Riverside Food Centre,27763.03,,,,30526.15,,,30526.15,41709ABE4A1AC557,Point,247792,4/11/2017 10:49:15 AM,Zion Road,,27763.03,70,HUP Standard Upgrading
103.852941556275,1.33603882157119,HAWKERCENTRE.97,Blk 75 Toa Payoh Lorong 5,30183.83,,,,35357.91,,,35357.91,83FB95F6865FD552,Point,310075,4/11/2017 10:49:15 AM,Lorong 5 Toa Payoh,,30183.83,75,HUP Standard Upgrading
103.818402623449,1.28785810256754,HAWKERCENTRE.98,Blk 79 Redhill Lane,26339.98,,,,30030.33,,,30030.33,ECAC58C7BF378E64,Point,150079,4/11/2017 10:49:15 AM,Redhill Lane,,26339.98,79,HUP Reconfiguration
103.938732580554,1.33198706861809,HAWKERCENTRE.99,Blk 85 Bedok North Street 4,39731.49,,,,34910.13,,,34910.13,CFC780A1F2E1B2DC,Point,460085,4/11/2017 10:49:15 AM,Bedok North Street 4,,39731.49,85,HUP Standard Upgrading
103.818338919994,1.28733076704111,HAWKERCENTRE.100,Blk 85 Redhill Lane,26332.8899,,,,29972.0199,,,29972.02,1D515CA58E5C9BD5,Point,150085,4/11/2017 10:49:15 AM,Redhill Lane,,26332.89,85,HUP Reconfiguration
103.885449224256,1.32344525333921,HAWKERCENTRE.101,Blk 89 Circuit Road,33801.62,,,,33965.4299,,,33965.43,4EDE2CCE44720F0B,Point,370089,4/11/2017 10:49:15 AM,Circuit Road,,33801.62,89,HUP Standard Upgrading
103.855137696535,1.32294306204263,HAWKERCENTRE.102,Blk 90 Whampoa Drive,30428.25,,,,33909.8499,,,33909.85,16F08FA059AAF52C,Point,320090,4/11/2017 10:49:15 AM,Whampoa Drive,,30428.25,90,HUP Standard Upgrading
103.849513484035,1.33847475246223,HAWKERCENTRE.103,Blk 93 Toa Payoh Lorong 4,29802.32,,,,35627.2599,,,35627.26,8ED7D8178D927696,Point,310093,4/11/2017 10:49:15 AM,Lorong 4 Toa Payoh,,29802.32,93,HUP Standard Upgrading
103.797875477439,1.29971330531991,HAWKERCENTRE.104,Blks 1A/ 2A/ 3A Commonwealth Drive,24055.5,,,,31341.24,,,31341.24,B823DC7792684471,Point,141001,4/11/2017 10:49:15 AM,Commonwealth Drive,,24055.5,1A/2A/3A,HUP Standard Upgrading
103.882977999397,1.37542896666562,HAWKERCENTRE.105,Ci Yuan Hawker Centre,33526.48,,,,39713.5199,,,39713.52,2AA90E9C9CA8E8C5,Point,538776,4/11/2017 10:49:15 AM,Hougang Avenue 9,,33526.48,51,
103.939726160039,1.35386211773318,HAWKERCENTRE.106,Our Tampines Hub Hawker Centre,39841.96,,,,37328.97,Our Tampines Hub,,37328.97,17E2D59B7A28B801,Point,529684,4/11/2017 10:49:15 AM,Tampines Avenue 4,,39841.96,51,
103.800696448529,1.43993283228045,HAWKERCENTRE.107,Kampung Admiralty Hawker Centre,24369.66,,,,46846,Kampung Admiralty,,46846,8E56FA1F721E803E,Point,730676,4/11/2017 10:49:15 AM,Woodlands Drive 71,,24369.66,676,
103.804715225285,1.29748567106796,HAWKERCENTRE.108,Dawson Hawker Centre,24816.7,,,,31094.91,,,31094.91,C80F8969DCF1DD50,Point,,4/11/2017 10:49:15 AM,Margaret Drive,,24816.7,,
103.779784899996,1.43353885679956,HAWKERCENTRE.109,Woodlands Street 12 Hawker Centre,22042.5099,,,,46139.0299,,,46139.03,67D9A36BD31107C0,Point,,4/11/2017 10:49:15 AM,Woodlands Street 12,,22042.51,,
103.816992390295,1.28369258928215,HAWKERCENTRE.110,Blk 163 Bukit Merah Central,26183.03,,,,29569.73,,,29569.73,16F0047A9ECAB906,Point,150163,4/10/2017 6:09:18 PM,Bukit Merah Central,,26183.03,163,Opted out of HUP
103.933221544751,1.32706240889036,HAWKERCENTRE.111,Blk 216 Bedok North Street 1,39118.19,,,,34365.56,,,34365.56,B8E4DB8C688CFF6C,Point,460216,4/10/2017 6:09:18 PM,Bedok North Street 1,,39118.19,216,HUP Standard Upgrading
103.71844754363,1.34964224318471,HAWKERCENTRE.112,Blk 505 Jurong West Street 52,15216.1299,,,,36862.4,,,36862.4,0AE38DCC69255728,Point,640505,4/10/2017 6:09:18 PM,Jurong West Street 52,,15216.13,505,HUP Standard Upgrading
103.802903901115,1.29323622090774,HAWKERCENTRE.113,Blk 159 Mei Chin Road,24615.11,,,,30625.0299,,,30625.03,58C10BCCDB9C9604,Point,140159,4/11/2017 10:49:15 AM,Mei Chin Road,,24615.11,159,HUP Reconfiguration
103.93553909635,1.32055216481035,HAWKERCENTRE.114,Blk 16 Bedok South Road,39376.1399,,,,33645.6999,,,33645.7,483F3877DC8138CB,Point,460016,4/11/2017 10:49:15 AM,Bedok South Road,,39376.14,16,HUP Standard Upgrading
